ADRAS-J                 
1 58992U 24034A   24204.93741725  .00006427  00000+0  59335-3 0  9992
2 58992  98.2137 179.5924 0041900 291.8499  67.8266 14.94336713 23201
